{"fetched_at":"2026-03-29T16:36:15Z","count":15609,"tles":[{"name":"STARLINK-35119","line1":"1 65508U 25198S   26087.68536083  .00001468  00000+0  61731-4 0  9991","line2":"2 65508  53.1580 183.1024 0001462  66.5216 293.5938 15.30176813 31521","category":"Starlink"}]}